1 29155U 06018A   10031.10291944 -.00000095  00000-0  10000-3 0  9519
2 29155 000.4354 090.8984 0002788 165.2980 165.7032 01.00272420 13549